{"fetched_at":"2026-07-17T17:37:50.156Z","source":"https://celestrak.org/NORAD/elements/gp.php?GROUP=iridium-NEXT&FORMAT=JSON","constellation":"iridium","records":[{"OBJECT_NAME":"IRIDIUM 126","OBJECT_ID":"2017-039G","EPOCH":"2026-07-16T22:33:18.957600","CLASSIFICATION_TYPE":"U","MEAN_MOTION":14.34217499,"ECCENTRICITY":0.00020659,"INCLINATION":86.3993,"RA_OF_ASC_NODE":341.2067,"ARG_OF_PERICENTER":91.5832,"MEAN_ANOMALY":268.5601,"EPHEMERIS_TYPE":0,"NORAD_CAT_ID":42809,"ELEMENT_SET_NO":999,"REV_AT_EPOCH":47421,"BSTAR":-0.000004965723,"MEAN_MOTION_DOT":6e-8,"MEAN_MOTION_DDOT":0},{"OBJECT_NAME":"IRIDIUM 124","OBJECT_ID":"2017-039H","EPOCH":"2026-07-16T17:25:23.146176","CLASSIFICATION_TYPE":"U","MEAN_MOTION":14.43274638,"ECCENTRICITY":0.00022183,"INCLINATION":86.4483,"RA_OF_ASC_NODE":278.0086,"ARG_OF_PERICENTER":96.6229,"MEAN_ANOMALY":263.5225,"EPHEMERIS_TYPE":0,"NORAD_CAT_ID":42810,"ELEMENT_SET_NO":999,"REV_AT_EPOCH":47937,"BSTAR":0.000048434624,"MEAN_MOTION_DOT":0.00000183,"MEAN_MOTION_DDOT":0},{"OBJECT_NAME":"IRIDIUM 128","OBJECT_ID":"2017-039J","EPOCH":"2026-07-17T05:01:51.002976","CLASSIFICATION_TYPE":"U","MEAN_MOTION":14.34217128,"ECCENTRICITY":0.00022703,"INCLINATION":86.3967,"RA_OF_ASC_NODE":12.5944,"ARG_OF_PERICENTER":93.7418,"MEAN_ANOMALY":266.4037,"EPHEMERIS_TYPE":0,"NORAD_CAT_ID":42811,"ELEMENT_SET_NO":999,"REV_AT_EPOCH":47428,"BSTAR":0.000012183677,"MEAN_MOTION_DOT":5.4e-7,"MEAN_MOTION_DDOT":0},{"OBJECT_NAME":"IRIDIUM 121","OBJECT_ID":"2017-039K","EPOCH":"2026-07-17T04:02:06.959040","CLASSIFICATION_TYPE":"U","MEAN_MOTION":14.34217696,"ECCENTRICITY":0.00022362,"INCLINATION":86.3994,"RA_OF_ASC_NODE":341.1394,"ARG_OF_PERICENTER":92.4243,"MEAN_ANOMALY":267.7209,"EPHEMERIS_TYPE":0,"NORAD_CAT_ID":42812,"ELEMENT_SET_NO":999,"REV_AT_EPOCH":47412,"BSTAR":0.000005384231,"MEAN_MOTION_DOT":3.5e-7,"MEAN_MOTION_DDOT":0},{"OBJECT_NAME":"IRIDIUM 133","OBJECT_ID":"2017-061A","EPOCH":"2026-07-17T05:47:30.803136","CLASSIFICATION_TYPE":"U","MEAN_MOTION":14.34217448,"ECCENTRICITY":0.00022188,"INCLINATION":86.397,"RA_OF_ASC_NODE":12.6997,"ARG_OF_PERICENTER":91.329,"MEAN_ANOMALY":268.8161,"EPHEMERIS_TYPE":0,"NORAD_CAT_ID":42955,"ELEMENT_SET_NO":999,"REV_AT_EPOCH":45908,"BSTAR":0.000012202825,"MEAN_MOTION_DOT":5.4e-7,"MEAN_MOTION_DDOT":0},{"OBJECT_NAME":"IRIDIUM 100","OBJECT_ID":"2017-061B","EPOCH":"2026-07-16T12:53:42.916992","CLASSIFICATION_TYPE":"U","MEAN_MOTION":14.34217403,"ECCENTRICITY":0.00022184,"INCLINATION":86.3965,"RA_OF_ASC_NODE":12.9119,"ARG_OF_PERICENTER":90.1682,"MEAN_ANOMALY":269.9768,"EPHEMERIS_TYPE":0,"NORAD_CAT_ID":42956,"ELEMENT_SET_NO":999,"REV_AT_EPOCH":45898,"BSTAR":0.000008562295,"MEAN_MOTION_DOT":4.4e-7,"MEAN_MOTION_DDOT":0},{"OBJECT_NAME":"IRIDIUM 122","OBJECT_ID":"2017-061C","EPOCH":"2026-07-17T04:52:42.534912","CLASSIFICATION_TYPE":"U","MEAN_MOTION":14.34217454,"ECCENTRICITY":0.00021063,"INCLINATION":86.3967,"RA_OF_ASC_NODE":12.6338,"ARG_OF_PERICENTER":91.2466,"MEAN_ANOMALY":268.8971,"EPHEMERIS_TYPE":0,"NORAD_CAT_ID":42957,"ELEMENT_SET_NO":999,"REV_AT_EPOCH":45908,"BSTAR":0.000012583863,"MEAN_MOTION_DOT":5.5e-7,"MEAN_MOTION_DDOT":0},{"OBJECT_NAME":"IRIDIUM 129","OBJECT_ID":"2017-061D","EPOCH":"2026-07-17T00:27:50.647680","CLASSIFICATION_TYPE":"U","MEAN_MOTION":14.34217291,"ECCENTRICITY":0.00021044,"INCLINATION":86.3968,"RA_OF_ASC_NODE":12.778,"ARG_OF_PERICENTER":84.002,"MEAN_ANOMALY":276.1416,"EPHEMERIS_TYPE":0,"NORAD_CAT_ID":42958,"ELEMENT_SET_NO":999,"REV_AT_EPOCH":45907,"BSTAR":0.000010018842,"MEAN_MOTION_DOT":4.8e-7,"MEAN_MOTION_DDOT":0},{"OBJECT_NAME":"IRIDIUM 119","OBJECT_ID":"2017-061E","EPOCH":"2026-07-16T23:42:10.943424","CLASSIFICATION_TYPE":"U","MEAN_MOTION":14.34217069,"ECCENTRICITY":0.00021018,"INCLINATION":86.3969,"RA_OF_ASC_NODE":12.7871,"ARG_OF_PERICENTER":91.06,"MEAN_ANOMALY":269.0836,"EPHEMERIS_TYPE":0,"NORAD_CAT_ID":42959,"ELEMENT_SET_NO":999,"REV_AT_EPOCH":45908,"BSTAR":0.000013400498,"MEAN_MOTION_DOT":5.7e-7,"MEAN_MOTION_DDOT":0},{"OBJECT_NAME":"IRIDIUM 107","OBJECT_ID":"2017-061F","EPOCH":"2026-07-17T05:10:58.681344","CLASSIFICATION_TYPE":"U","MEAN_MOTION":14.34217572,"ECCENTRICITY":0.00021282,"INCLINATION":86.397,"RA_OF_ASC_NODE":12.7131,"ARG_OF_PERICENTER":97.2746,"MEAN_ANOMALY":262.8692,"EPHEMERIS_TYPE":0,"NORAD_CAT_ID":42960,"ELEMENT_SET_NO":999,"REV_AT_EPOCH":45912,"BSTAR":0.000014666605,"MEAN_MOTION_DOT":6.1e-7,"MEAN_MOTION_DDOT":0},{"OBJECT_NAME":"IRIDIUM 132","OBJECT_ID":"2017-061G","EPOCH":"2026-07-17T05:20:06.886752","CLASSIFICATION_TYPE":"U","MEAN_MOTION":14.34216943,"ECCENTRICITY":0.00021853,"INCLINATION":86.3967,"RA_OF_ASC_NODE":12.6897,"ARG_OF_PERICENTER":91.2775,"MEAN_ANOMALY":268.8671,"EPHEMERIS_TYPE":0,"NORAD_CAT_ID":42961,"ELEMENT_SET_NO":999,"REV_AT_EPOCH":45912,"BSTAR":0.000011541366,"MEAN_MOTION_DOT":5.2e-7,"MEAN_MOTION_DDOT":0},{"OBJECT_NAME":"IRIDIUM 136","OBJECT_ID":"2017-061H","EPOCH":"2026-07-16T23:23:54.900672","CLASSIFICATION_TYPE":"U","MEAN_MOTION":14.34217501,"ECCENTRICITY":0.00022406,"INCLINATION":86.3969,"RA_OF_ASC_NODE":12.8,"ARG_OF_PERICENTER":90.2029,"MEAN_ANOMALY":269.9423,"EPHEMERIS_TYPE":0,"NORAD_CAT_ID":42962,"ELEMENT_SET_NO":999,"REV_AT_EPOCH":45910,"BSTAR":0.000011830397,"MEAN_MOTION_DOT":5.3e-7,"MEAN_MOTION_DDOT":0},{"OBJECT_NAME":"IRIDIUM 139","OBJECT_ID":"2017-061J","EPOCH":"2026-07-16T23:33:02.976480","CLASSIFICATION_TYPE":"U","MEAN_MOTION":14.34217437,"ECCENTRICITY":0.00022557,"INCLINATION":86.3971,"RA_OF_ASC_NODE":12.8597,"ARG_OF_PERICENTER":92.6726,"MEAN_ANOMALY":267.4728,"EPHEMERIS_TYPE":0,"NORAD_CAT_ID":42963,"ELEMENT_SET_NO":999,"REV_AT_EPOCH":45911,"BSTAR":0.000011749007,"MEAN_MOTION_DOT":5.3e-7,"MEAN_MOTION_DDOT":0},{"OBJECT_NAME":"IRIDIUM 125","OBJECT_ID":"2017-061K","EPOCH":"2026-07-16T23:14:46.898304","CLASSIFICATION_TYPE":"U","MEAN_MOTION":14.34217701,"ECCENTRICITY":0.00016663,"INCLINATION":86.3971,"RA_OF_ASC_NODE":12.9266,"ARG_OF_PERICENTER":94.1672,"MEAN_ANOMALY":265.9714,"EPHEMERIS_TYPE":0,"NORAD_CAT_ID":42964,"ELEMENT_SET_NO":999,"REV_AT_EPOCH":45912,"BSTAR":0.000009679327,"MEAN_MOTION_DOT":4.7e-7,"MEAN_MOTION_DDOT":0},{"OBJECT_NAME":"IRIDIUM 135","OBJECT_ID":"2017-083A","EPOCH":"2026-07-17T06:59:51.178848","CLASSIFICATION_TYPE":"U","MEAN_MOTION":14.34218067,"ECCENTRICITY":0.00022151,"INCLINATION":86.3985,"RA_OF_ASC_NODE":309.4317,"ARG_OF_PERICENTER":94.4062,"MEAN_ANOMALY":265.7387,"EPHEMERIS_TYPE":0,"NORAD_CAT_ID":43070,"ELEMENT_SET_NO":999,"REV_AT_EPOCH":44846,"BSTAR":0.000013676646,"MEAN_MOTION_DOT":5.8e-7,"MEAN_MOTION_DDOT":0},{"OBJECT_NAME":"IRIDIUM 138","OBJECT_ID":"2017-083B","EPOCH":"2026-07-17T05:55:54.934176","CLASSIFICATION_TYPE":"U","MEAN_MOTION":14.3421912,"ECCENTRICITY":0.00020609,"INCLINATION":86.3999,"RA_OF_ASC_NODE":309.1504,"ARG_OF_PERICENTER":92.8202,"MEAN_ANOMALY":267.323,"EPHEMERIS_TYPE":0,"NORAD_CAT_ID":43071,"ELEMENT_SET_NO":999,"REV_AT_EPOCH":44844,"BSTAR":0.000043166201,"MEAN_MOTION_DOT":0.00000141,"MEAN_MOTION_DDOT":0}]}
