IRIDIUM 126             
1 42809U 17039G   26197.93980275  .00000006  00000+0 -49657-5 0  9993
2 42809  86.3993 341.2067 0002065  91.5832 268.5601 14.34217499474217
IRIDIUM 124             
1 42810U 17039H   26197.72596234  .00000183  00000+0  48435-4 0  9997
2 42810  86.4483 278.0086 0002218  96.6229 263.5225 14.43274638479375
IRIDIUM 128             
1 42811U 17039J   26198.20961809  .00000054  00000+0  12184-4 0  9995
2 42811  86.3967  12.5944 0002270  93.7418 266.4037 14.34217128474281
IRIDIUM 121             
1 42812U 17039K   26198.16813610  .00000035  00000+0  53842-5 0  9993
2 42812  86.3994 341.1394 0002236  92.4243 267.7209 14.34217696474124
IRIDIUM 133             
1 42955U 17061A   26198.24132874  .00000054  00000+0  12203-4 0  9997
2 42955  86.3970  12.6997 0002218  91.3290 268.8161 14.34217448459087
IRIDIUM 100             
1 42956U 17061B   26197.53730228  .00000044  00000+0  85623-5 0  9992
2 42956  86.3965  12.9119 0002218  90.1682 269.9768 14.34217403458987
IRIDIUM 122             
1 42957U 17061C   26198.20327008  .00000055  00000+0  12584-4 0  9993
2 42957  86.3967  12.6338 0002106  91.2466 268.8971 14.34217454459080
IRIDIUM 129             
1 42958U 17061D   26198.01933620  .00000048  00000+0  10019-4 0  9999
2 42958  86.3968  12.7780 0002104  84.0020 276.1416 14.34217291459072
IRIDIUM 119             
1 42959U 17061E   26197.98762666  .00000057  00000+0  13400-4 0  9992
2 42959  86.3969  12.7871 0002101  91.0600 269.0836 14.34217069459085
IRIDIUM 107             
1 42960U 17061F   26198.21595696  .00000061  00000+0  14667-4 0  9999
2 42960  86.3970  12.7131 0002128  97.2746 262.8692 14.34217572459121
IRIDIUM 132             
1 42961U 17061G   26198.22230193  .00000052  00000+0  11541-4 0  9997
2 42961  86.3967  12.6897 0002185  91.2775 268.8671 14.34216943459129
IRIDIUM 136             
1 42962U 17061H   26197.97494098  .00000053  00000+0  11830-4 0  9997
2 42962  86.3969  12.8000 0002240  90.2029 269.9423 14.34217501459109
IRIDIUM 139             
1 42963U 17061J   26197.98128445  .00000053  00000+0  11749-4 0  9998
2 42963  86.3971  12.8597 0002255  92.6726 267.4728 14.34217437459110
IRIDIUM 125             
1 42964U 17061K   26197.96859836  .00000047  00000+0  96793-5 0  9998
2 42964  86.3971  12.9266 0001666  94.1672 265.9714 14.34217701459120
IRIDIUM 135             
1 43070U 17083A   26198.29156457  .00000058  00000+0  13677-4 0  9998
2 43070  86.3985 309.4317 0002215  94.4062 265.7387 14.34218067448467
IRIDIUM 138             
1 43071U 17083B   26198.24716359  .00000141  00000+0  43166-4 0  9996
2 43071  86.3999 309.1504 0002060  92.8202 267.3230 14.34219120448448
